{
"type": "FeatureCollection",
"name": "edges",
"crs": { "type": "name", "properties": { "name": "urn:ogc:def:crs:OGC:1.3:CRS84" } },
"features": [
{ "type": "Feature", "properties": { "edge_id": "E001", "from_node": "DL01", "to_node": "DL02", "from_name": "Nhà lao thiếu nhi Đà Lạt", "to_name": "Ga Đà Lạt", "distance_km": 2.32, "base_time_min": 3.56, "average_speed_kph": 39.0, "road_type": "residential|secondary", "one_way_share": 0.0, "direction": "directed", "congestion_level": 1, "risk_score": 0, "closed": false, "backbone_edge": false, "data_source": "OpenStreetMap + modeled speeds" }, "geometry": { "type": "LineString", "coordinates": [ [ 108.4706527, 11.9521331 ], [ 108.4544798, 11.9416078 ] ] } },
{ "type": "Feature", "properties": { "edge_id": "E002", "from_node": "DL02", "to_node": "DL01", "from_name": "Ga Đà Lạt", "to_name": "Nhà lao thiếu nhi Đà Lạt", "distance_km": 2.32, "base_time_min": 3.56, "average_speed_kph": 39.0, "road_type": "residential|secondary", "one_way_share": 0.0, "direction": "directed", "congestion_level": 1, "risk_score": 0, "closed": false, "backbone_edge": false, "data_source": "OpenStreetMap + modeled speeds" }, "geometry": { "type": "LineString", "coordinates": [ [ 108.4544798, 11.9416078 ], [ 108.4706527, 11.9521331 ] ] } },
{ "type": "Feature", "properties": { "edge_id": "E003", "from_node": "DL01", "to_node": "DL05", "from_name": "Nhà lao thiếu nhi Đà Lạt", "to_name": "Bảo tàng Lâm Đồng", "distance_km": 2.207, "base_time_min": 4.24, "average_speed_kph": 31.2, "road_type": "residential|secondary|trunk", "one_way_share": 0.0, "direction": "directed", "congestion_level": 1, "risk_score": 0, "closed": false, "backbone_edge": true, "data_source": "OpenStreetMap + modeled speeds" }, "geometry": { "type": "LineString", "coordinates": [ [ 108.4706527, 11.9521331 ], [ 108.4599038, 11.9405756 ] ] } },
{ "type": "Feature", "properties": { "edge_id": "E004", "from_node": "DL05", "to_node": "DL01", "from_name": "Bảo tàng Lâm Đồng", "to_name": "Nhà lao thiếu nhi Đà Lạt", "distance_km": 2.207, "base_time_min": 4.24, "average_speed_kph": 31.2, "road_type": "residential|secondary|trunk", "one_way_share": 0.0, "direction": "directed", "congestion_level": 1, "risk_score": 0, "closed": false, "backbone_edge": true, "data_source": "OpenStreetMap + modeled speeds" }, "geometry": { "type": "LineString", "coordinates": [ [ 108.4599038, 11.9405756 ], [ 108.4706527, 11.9521331 ] ] } },
{ "type": "Feature", "properties": { "edge_id": "E005", "from_node": "DL01", "to_node": "DL06", "from_name": "Nhà lao thiếu nhi Đà Lạt", "to_name": "Thung Lũng Tình Yêu", "distance_km": 6.008, "base_time_min": 9.1, "average_speed_kph": 39.6, "road_type": "residential|secondary", "one_way_share": 0.132, "direction": "directed", "congestion_level": 1, "risk_score": 0, "closed": false, "backbone_edge": true, "data_source": "OpenStreetMap + modeled speeds" }, "geometry": { "type": "LineString", "coordinates": [ [ 108.4706527, 11.9521331 ], [ 108.4499229, 11.9781853 ] ] } },
{ "type": "Feature", "properties": { "edge_id": "E006", "from_node": "DL06", "to_node": "DL01", "from_name": "Thung Lũng Tình Yêu", "to_name": "Nhà lao thiếu nhi Đà Lạt", "distance_km": 6.013, "base_time_min": 9.1, "average_speed_kph": 39.6, "road_type": "residential|secondary", "one_way_share": 0.132, "direction": "directed", "congestion_level": 1, "risk_score": 0, "closed": false, "backbone_edge": true, "data_source": "OpenStreetMap + modeled speeds" }, "geometry": { "type": "LineString", "coordinates": [ [ 108.4499229, 11.9781853 ], [ 108.4706527, 11.9521331 ] ] } },
{ "type": "Feature", "properties": { "edge_id": "E007", "from_node": "DL01", "to_node": "DL14", "from_name": "Nhà lao thiếu nhi Đà Lạt", "to_name": "Vườn Hoa Cẩm Tú Cầu", "distance_km": 7.289, "base_time_min": 15.2, "average_speed_kph": 28.8, "road_type": "primary|residential|secondary|trunk|unclassified", "one_way_share": 0.106, "direction": "directed", "congestion_level": 1, "risk_score": 0, "closed": false, "backbone_edge": true, "data_source": "OpenStreetMap + modeled speeds" }, "geometry": { "type": "LineString", "coordinates": [ [ 108.4706527, 11.9521331 ], [ 108.5130702, 11.9461533 ] ] } },
{ "type": "Feature", "properties": { "edge_id": "E008", "from_node": "DL14", "to_node": "DL01", "from_name": "Vườn Hoa Cẩm Tú Cầu", "to_name": "Nhà lao thiếu nhi Đà Lạt", "distance_km": 7.231, "base_time_min": 15.06, "average_speed_kph": 28.8, "road_type": "primary|residential|secondary|trunk|unclassified", "one_way_share": 0.067, "direction": "directed", "congestion_level": 1, "risk_score": 0, "closed": false, "backbone_edge": true, "data_source": "OpenStreetMap + modeled speeds" }, "geometry": { "type": "LineString", "coordinates": [ [ 108.5130702, 11.9461533 ], [ 108.4706527, 11.9521331 ] ] } },
{ "type": "Feature", "properties": { "edge_id": "E009", "from_node": "DL01", "to_node": "DL22", "from_name": "Nhà lao thiếu nhi Đà Lạt", "to_name": "Hồ Xuân Hương", "distance_km": 3.023, "base_time_min": 4.62, "average_speed_kph": 39.3, "road_type": "residential|secondary", "one_way_share": 0.182, "direction": "directed", "congestion_level": 1, "risk_score": 0, "closed": false, "backbone_edge": false, "data_source": "OpenStreetMap + modeled speeds" }, "geometry": { "type": "LineString", "coordinates": [ [ 108.4706527, 11.9521331 ], [ 108.4468389, 11.94185 ] ] } },
{ "type": "Feature", "properties": { "edge_id": "E010", "from_node": "DL22", "to_node": "DL01", "from_name": "Hồ Xuân Hương", "to_name": "Nhà lao thiếu nhi Đà Lạt", "distance_km": 3.031, "base_time_min": 4.63, "average_speed_kph": 39.3, "road_type": "residential|secondary", "one_way_share": 0.182, "direction": "directed", "congestion_level": 1, "risk_score": 0, "closed": false, "backbone_edge": false, "data_source": "OpenStreetMap + modeled speeds" }, "geometry": { "type": "LineString", "coordinates": [ [ 108.4468389, 11.94185 ], [ 108.4706527, 11.9521331 ] ] } },
{ "type": "Feature", "properties": { "edge_id": "E011", "from_node": "DL02", "to_node": "DL05", "from_name": "Ga Đà Lạt", "to_name": "Bảo tàng Lâm Đồng", "distance_km": 1.598, "base_time_min": 3.15, "average_speed_kph": 30.4, "road_type": "secondary|tertiary|trunk", "one_way_share": 0.444, "direction": "directed", "congestion_level": 1, "risk_score": 0, "closed": false, "backbone_edge": true, "data_source": "OpenStreetMap + modeled speeds" }, "geometry": { "type": "LineString", "coordinates": [ [ 108.4544798, 11.9416078 ], [ 108.4599038, 11.9405756 ] ] } },
{ "type": "Feature", "properties": { "edge_id": "E012", "from_node": "DL05", "to_node": "DL02", "from_name": "Bảo tàng Lâm Đồng", "to_name": "Ga Đà Lạt", "distance_km": 1.541, "base_time_min": 3.01, "average_speed_kph": 30.7, "road_type": "secondary|tertiary|trunk", "one_way_share": 0.308, "direction": "directed", "congestion_level": 1, "risk_score": 0, "closed": false, "backbone_edge": true, "data_source": "OpenStreetMap + modeled speeds" }, "geometry": { "type": "LineString", "coordinates": [ [ 108.4599038, 11.9405756 ], [ 108.4544798, 11.9416078 ] ] } },
{ "type": "Feature", "properties": { "edge_id": "E013", "from_node": "DL02", "to_node": "DL14", "from_name": "Ga Đà Lạt", "to_name": "Vườn Hoa Cẩm Tú Cầu", "distance_km": 9.495, "base_time_min": 18.42, "average_speed_kph": 30.9, "road_type": "primary|residential|secondary|trunk|unclassified", "one_way_share": 0.085, "direction": "directed", "congestion_level": 1, "risk_score": 0, "closed": false, "backbone_edge": false, "data_source": "OpenStreetMap + modeled speeds" }, "geometry": { "type": "LineString", "coordinates": [ [ 108.4544798, 11.9416078 ], [ 108.5130702, 11.9461533 ] ] } },
{ "type": "Feature", "properties": { "edge_id": "E014", "from_node": "DL14", "to_node": "DL02", "from_name": "Vườn Hoa Cẩm Tú Cầu", "to_name": "Ga Đà Lạt", "distance_km": 9.438, "base_time_min": 18.28, "average_speed_kph": 31.0, "road_type": "primary|residential|secondary|trunk|unclassified", "one_way_share": 0.053, "direction": "directed", "congestion_level": 1, "risk_score": 0, "closed": false, "backbone_edge": false, "data_source": "OpenStreetMap + modeled speeds" }, "geometry": { "type": "LineString", "coordinates": [ [ 108.5130702, 11.9461533 ], [ 108.4544798, 11.9416078 ] ] } },
{ "type": "Feature", "properties": { "edge_id": "E015", "from_node": "DL02", "to_node": "DL22", "from_name": "Ga Đà Lạt", "to_name": "Hồ Xuân Hương", "distance_km": 0.704, "base_time_min": 1.06, "average_speed_kph": 40.0, "road_type": "secondary", "one_way_share": 0.5, "direction": "directed", "congestion_level": 1, "risk_score": 0, "closed": false, "backbone_edge": true, "data_source": "OpenStreetMap + modeled speeds" }, "geometry": { "type": "LineString", "coordinates": [ [ 108.4544798, 11.9416078 ], [ 108.4468389, 11.94185 ] ] } },
{ "type": "Feature", "properties": { "edge_id": "E016", "from_node": "DL22", "to_node": "DL02", "from_name": "Hồ Xuân Hương", "to_name": "Ga Đà Lạt", "distance_km": 0.711, "base_time_min": 1.07, "average_speed_kph": 40.0, "road_type": "secondary", "one_way_share": 0.5, "direction": "directed", "congestion_level": 1, "risk_score": 0, "closed": false, "backbone_edge": true, "data_source": "OpenStreetMap + modeled speeds" }, "geometry": { "type": "LineString", "coordinates": [ [ 108.4468389, 11.94185 ], [ 108.4544798, 11.9416078 ] ] } },
{ "type": "Feature", "properties": { "edge_id": "E017", "from_node": "DL02", "to_node": "DL23", "from_name": "Ga Đà Lạt", "to_name": "Quảng trường Lâm Viên", "distance_km": 1.294, "base_time_min": 2.32, "average_speed_kph": 33.5, "road_type": "residential|secondary|tertiary", "one_way_share": 0.333, "direction": "directed", "congestion_level": 1, "risk_score": 0, "closed": false, "backbone_edge": false, "data_source": "OpenStreetMap + modeled speeds" }, "geometry": { "type": "LineString", "coordinates": [ [ 108.4544798, 11.9416078 ], [ 108.44501, 11.93884 ] ] } },
{ "type": "Feature", "properties": { "edge_id": "E018", "from_node": "DL23", "to_node": "DL02", "from_name": "Quảng trường Lâm Viên", "to_name": "Ga Đà Lạt", "distance_km": 1.302, "base_time_min": 2.33, "average_speed_kph": 33.5, "road_type": "residential|secondary|tertiary", "one_way_share": 0.333, "direction": "directed", "congestion_level": 1, "risk_score": 0, "closed": false, "backbone_edge": false, "data_source": "OpenStreetMap + modeled speeds" }, "geometry": { "type": "LineString", "coordinates": [ [ 108.44501, 11.93884 ], [ 108.4544798, 11.9416078 ] ] } },
{ "type": "Feature", "properties": { "edge_id": "E019", "from_node": "DL03", "to_node": "DL04", "from_name": "Crazy House", "to_name": "Museum Madam De Dalat", "distance_km": 2.182, "base_time_min": 4.16, "average_speed_kph": 31.5, "road_type": "primary|residential|secondary|tertiary", "one_way_share": 0.214, "direction": "directed", "congestion_level": 1, "risk_score": 0, "closed": false, "backbone_edge": false, "data_source": "OpenStreetMap + modeled speeds" }, "geometry": { "type": "LineString", "coordinates": [ [ 108.4306807, 11.9345615 ], [ 108.4262529, 11.9463059 ] ] } },
{ "type": "Feature", "properties": { "edge_id": "E020", "from_node": "DL04", "to_node": "DL03", "from_name": "Museum Madam De Dalat", "to_name": "Crazy House", "distance_km": 2.217, "base_time_min": 4.19, "average_speed_kph": 31.7, "road_type": "primary|residential|secondary|tertiary", "one_way_share": 0.241, "direction": "directed", "congestion_level": 1, "risk_score": 0, "closed": false, "backbone_edge": false, "data_source": "OpenStreetMap + modeled speeds" }, "geometry": { "type": "LineString", "coordinates": [ [ 108.4262529, 11.9463059 ], [ 108.4306807, 11.9345615 ] ] } },
{ "type": "Feature", "properties": { "edge_id": "E021", "from_node": "DL03", "to_node": "DL13", "from_name": "Crazy House", "to_name": "Dinh III Bảo Đại", "distance_km": 1.037, "base_time_min": 2.07, "average_speed_kph": 30.0, "road_type": "tertiary", "one_way_share": 0.0, "direction": "directed", "congestion_level": 1, "risk_score": 0, "closed": false, "backbone_edge": true, "data_source": "OpenStreetMap + modeled speeds" }, "geometry": { "type": "LineString", "coordinates": [ [ 108.4306807, 11.9345615 ], [ 108.4296735, 11.9300468 ] ] } },
{ "type": "Feature", "properties": { "edge_id": "E022", "from_node": "DL13", "to_node": "DL03", "from_name": "Dinh III Bảo Đại", "to_name": "Crazy House", "distance_km": 1.037, "base_time_min": 2.07, "average_speed_kph": 30.0, "road_type": "tertiary", "one_way_share": 0.0, "direction": "directed", "congestion_level": 1, "risk_score": 0, "closed": false, "backbone_edge": true, "data_source": "OpenStreetMap + modeled speeds" }, "geometry": { "type": "LineString", "coordinates": [ [ 108.4296735, 11.9300468 ], [ 108.4306807, 11.9345615 ] ] } },
{ "type": "Feature", "properties": { "edge_id": "E023", "from_node": "DL03", "to_node": "DL15", "from_name": "Crazy House", "to_name": "Nhà thờ Cam Ly", "distance_km": 2.77, "base_time_min": 5.94, "average_speed_kph": 28.0, "road_type": "primary|residential|secondary|tertiary", "one_way_share": 0.207, "direction": "directed", "congestion_level": 1, "risk_score": 0, "closed": false, "backbone_edge": false, "data_source": "OpenStreetMap + modeled speeds" }, "geometry": { "type": "LineString", "coordinates": [ [ 108.4306807, 11.9345615 ], [ 108.4224568, 11.9441573 ] ] } },
{ "type": "Feature", "properties": { "edge_id": "E024", "from_node": "DL15", "to_node": "DL03", "from_name": "Nhà thờ Cam Ly", "to_name": "Crazy House", "distance_km": 2.805, "base_time_min": 5.98, "average_speed_kph": 28.2, "road_type": "primary|residential|secondary|tertiary", "one_way_share": 0.233, "direction": "directed", "congestion_level": 1, "risk_score": 0, "closed": false, "backbone_edge": false, "data_source": "OpenStreetMap + modeled speeds" }, "geometry": { "type": "LineString", "coordinates": [ [ 108.4224568, 11.9441573 ], [ 108.4306807, 11.9345615 ] ] } },
{ "type": "Feature", "properties": { "edge_id": "E025", "from_node": "DL03", "to_node": "DL21", "from_name": "Crazy House", "to_name": "Chợ Đà Lạt", "distance_km": 1.414, "base_time_min": 2.76, "average_speed_kph": 30.7, "road_type": "primary|primary_link|residential|secondary|tertiary", "one_way_share": 0.391, "direction": "directed", "congestion_level": 1, "risk_score": 0, "closed": false, "backbone_edge": true, "data_source": "OpenStreetMap + modeled speeds" }, "geometry": { "type": "LineString", "coordinates": [ [ 108.4306807, 11.9345615 ], [ 108.43721, 11.94352 ] ] } },
{ "type": "Feature", "properties": { "edge_id": "E026", "from_node": "DL21", "to_node": "DL03", "from_name": "Chợ Đà Lạt", "to_name": "Crazy House", "distance_km": 1.401, "base_time_min": 2.81, "average_speed_kph": 29.9, "road_type": "primary|residential|secondary|tertiary", "one_way_share": 0.455, "direction": "directed", "congestion_level": 1, "risk_score": 0, "closed": false, "backbone_edge": true, "data_source": "OpenStreetMap + modeled speeds" }, "geometry": { "type": "LineString", "coordinates": [ [ 108.43721, 11.94352 ], [ 108.4306807, 11.9345615 ] ] } },
{ "type": "Feature", "properties": { "edge_id": "E027", "from_node": "DL04", "to_node": "DL10", "from_name": "Museum Madam De Dalat", "to_name": "Vườn dâu Công nghệ cao Bình Yên", "distance_km": 0.366, "base_time_min": 1.1, "average_speed_kph": 20.0, "road_type": "residential", "one_way_share": 0.0, "direction": "directed", "congestion_level": 1, "risk_score": 0, "closed": false, "backbone_edge": true, "data_source": "OpenStreetMap + modeled speeds" }, "geometry": { "type": "LineString", "coordinates": [ [ 108.4262529, 11.9463059 ], [ 108.4271423, 11.9487973 ] ] } },
{ "type": "Feature", "properties": { "edge_id": "E028", "from_node": "DL10", "to_node": "DL04", "from_name": "Vườn dâu Công nghệ cao Bình Yên", "to_name": "Museum Madam De Dalat", "distance_km": 0.366, "base_time_min": 1.1, "average_speed_kph": 20.0, "road_type": "residential", "one_way_share": 0.0, "direction": "directed", "congestion_level": 1, "risk_score": 0, "closed": false, "backbone_edge": true, "data_source": "OpenStreetMap + modeled speeds" }, "geometry": { "type": "LineString", "coordinates": [ [ 108.4271423, 11.9487973 ], [ 108.4262529, 11.9463059 ] ] } },
{ "type": "Feature", "properties": { "edge_id": "E029", "from_node": "DL04", "to_node": "DL15", "from_name": "Museum Madam De Dalat", "to_name": "Nhà thờ Cam Ly", "distance_km": 0.919, "base_time_min": 2.76, "average_speed_kph": 20.0, "road_type": "residential", "one_way_share": 0.0, "direction": "directed", "congestion_level": 1, "risk_score": 0, "closed": false, "backbone_edge": true, "data_source": "OpenStreetMap + modeled speeds" }, "geometry": { "type": "LineString", "coordinates": [ [ 108.4262529, 11.9463059 ], [ 108.4224568, 11.9441573 ] ] } },
{ "type": "Feature", "properties": { "edge_id": "E030", "from_node": "DL15", "to_node": "DL04", "from_name": "Nhà thờ Cam Ly", "to_name": "Museum Madam De Dalat", "distance_km": 0.919, "base_time_min": 2.76, "average_speed_kph": 20.0, "road_type": "residential", "one_way_share": 0.0, "direction": "directed", "congestion_level": 1, "risk_score": 0, "closed": false, "backbone_edge": true, "data_source": "OpenStreetMap + modeled speeds" }, "geometry": { "type": "LineString", "coordinates": [ [ 108.4224568, 11.9441573 ], [ 108.4262529, 11.9463059 ] ] } },
{ "type": "Feature", "properties": { "edge_id": "E031", "from_node": "DL04", "to_node": "DL18", "from_name": "Museum Madam De Dalat", "to_name": "Làng Cổ Tích", "distance_km": 4.529, "base_time_min": 10.51, "average_speed_kph": 25.9, "road_type": "primary|primary_link|residential|tertiary|unclassified", "one_way_share": 0.2, "direction": "directed", "congestion_level": 1, "risk_score": 0, "closed": false, "backbone_edge": false, "data_source": "OpenStreetMap + modeled speeds" }, "geometry": { "type": "LineString", "coordinates": [ [ 108.4262529, 11.9463059 ], [ 108.4029778, 11.9485347 ] ] } },
{ "type": "Feature", "properties": { "edge_id": "E032", "from_node": "DL18", "to_node": "DL04", "from_name": "Làng Cổ Tích", "to_name": "Museum Madam De Dalat", "distance_km": 4.566, "base_time_min": 10.57, "average_speed_kph": 25.9, "road_type": "primary|primary_link|residential|tertiary|unclassified", "one_way_share": 0.133, "direction": "directed", "congestion_level": 1, "risk_score": 0, "closed": false, "backbone_edge": false, "data_source": "OpenStreetMap + modeled speeds" }, "geometry": { "type": "LineString", "coordinates": [ [ 108.4029778, 11.9485347 ], [ 108.4262529, 11.9463059 ] ] } },
{ "type": "Feature", "properties": { "edge_id": "E033", "from_node": "DL04", "to_node": "DL21", "from_name": "Museum Madam De Dalat", "to_name": "Chợ Đà Lạt", "distance_km": 2.273, "base_time_min": 4.8, "average_speed_kph": 28.4, "road_type": "residential|secondary|tertiary", "one_way_share": 0.185, "direction": "directed", "congestion_level": 1, "risk_score": 0, "closed": false, "backbone_edge": true, "data_source": "OpenStreetMap + modeled speeds" }, "geometry": { "type": "LineString", "coordinates": [ [ 108.4262529, 11.9463059 ], [ 108.43721, 11.94352 ] ] } },
{ "type": "Feature", "properties": { "edge_id": "E034", "from_node": "DL21", "to_node": "DL04", "from_name": "Chợ Đà Lạt", "to_name": "Museum Madam De Dalat", "distance_km": 2.27, "base_time_min": 4.84, "average_speed_kph": 28.1, "road_type": "residential|secondary|tertiary", "one_way_share": 0.185, "direction": "directed", "congestion_level": 1, "risk_score": 0, "closed": false, "backbone_edge": true, "data_source": "OpenStreetMap + modeled speeds" }, "geometry": { "type": "LineString", "coordinates": [ [ 108.43721, 11.94352 ], [ 108.4262529, 11.9463059 ] ] } },
{ "type": "Feature", "properties": { "edge_id": "E035", "from_node": "DL05", "to_node": "DL14", "from_name": "Bảo tàng Lâm Đồng", "to_name": "Vườn Hoa Cẩm Tú Cầu", "distance_km": 7.591, "base_time_min": 18.54, "average_speed_kph": 24.6, "road_type": "residential|trunk", "one_way_share": 0.073, "direction": "directed", "congestion_level": 1, "risk_score": 0, "closed": false, "backbone_edge": false, "data_source": "OpenStreetMap + modeled speeds" }, "geometry": { "type": "LineString", "coordinates": [ [ 108.4599038, 11.9405756 ], [ 108.5130702, 11.9461533 ] ] } },
{ "type": "Feature", "properties": { "edge_id": "E036", "from_node": "DL14", "to_node": "DL05", "from_name": "Vườn Hoa Cẩm Tú Cầu", "to_name": "Bảo tàng Lâm Đồng", "distance_km": 7.642, "base_time_min": 18.66, "average_speed_kph": 24.6, "road_type": "residential|trunk", "one_way_share": 0.105, "direction": "directed", "congestion_level": 1, "risk_score": 0, "closed": false, "backbone_edge": false, "data_source": "OpenStreetMap + modeled speeds" }, "geometry": { "type": "LineString", "coordinates": [ [ 108.5130702, 11.9461533 ], [ 108.4599038, 11.9405756 ] ] } },
{ "type": "Feature", "properties": { "edge_id": "E037", "from_node": "DL05", "to_node": "DL22", "from_name": "Bảo tàng Lâm Đồng", "to_name": "Hồ Xuân Hương", "distance_km": 1.493, "base_time_min": 2.94, "average_speed_kph": 30.4, "road_type": "secondary|tertiary|trunk", "one_way_share": 0.231, "direction": "directed", "congestion_level": 1, "risk_score": 0, "closed": false, "backbone_edge": false, "data_source": "OpenStreetMap + modeled speeds" }, "geometry": { "type": "LineString", "coordinates": [ [ 108.4599038, 11.9405756 ], [ 108.4468389, 11.94185 ] ] } },
{ "type": "Feature", "properties": { "edge_id": "E038", "from_node": "DL22", "to_node": "DL05", "from_name": "Hồ Xuân Hương", "to_name": "Bảo tàng Lâm Đồng", "distance_km": 1.547, "base_time_min": 3.07, "average_speed_kph": 30.2, "road_type": "secondary|tertiary|trunk", "one_way_share": 0.438, "direction": "directed", "congestion_level": 1, "risk_score": 0, "closed": false, "backbone_edge": false, "data_source": "OpenStreetMap + modeled speeds" }, "geometry": { "type": "LineString", "coordinates": [ [ 108.4468389, 11.94185 ], [ 108.4599038, 11.9405756 ] ] } },
{ "type": "Feature", "properties": { "edge_id": "E039", "from_node": "DL05", "to_node": "DL23", "from_name": "Bảo tàng Lâm Đồng", "to_name": "Quảng trường Lâm Viên", "distance_km": 1.946, "base_time_min": 2.73, "average_speed_kph": 42.7, "road_type": "primary|secondary|trunk", "one_way_share": 0.5, "direction": "directed", "congestion_level": 1, "risk_score": 0, "closed": false, "backbone_edge": false, "data_source": "OpenStreetMap + modeled speeds" }, "geometry": { "type": "LineString", "coordinates": [ [ 108.4599038, 11.9405756 ], [ 108.44501, 11.93884 ] ] } },
{ "type": "Feature", "properties": { "edge_id": "E040", "from_node": "DL23", "to_node": "DL05", "from_name": "Quảng trường Lâm Viên", "to_name": "Bảo tàng Lâm Đồng", "distance_km": 2.208, "base_time_min": 3.14, "average_speed_kph": 42.3, "road_type": "primary|secondary|trunk", "one_way_share": 0.579, "direction": "directed", "congestion_level": 1, "risk_score": 0, "closed": false, "backbone_edge": false, "data_source": "OpenStreetMap + modeled speeds" }, "geometry": { "type": "LineString", "coordinates": [ [ 108.44501, 11.93884 ], [ 108.4599038, 11.9405756 ] ] } },
{ "type": "Feature", "properties": { "edge_id": "E041", "from_node": "DL06", "to_node": "DL19", "from_name": "Thung Lũng Tình Yêu", "to_name": "Làng Đồng trụ LangBiang", "distance_km": 11.125, "base_time_min": 18.59, "average_speed_kph": 35.9, "road_type": "living_street|residential|secondary|tertiary", "one_way_share": 0.14, "direction": "directed", "congestion_level": 1, "risk_score": 0, "closed": false, "backbone_edge": true, "data_source": "OpenStreetMap + modeled speeds" }, "geometry": { "type": "LineString", "coordinates": [ [ 108.4499229, 11.9781853 ], [ 108.4347078, 12.0195502 ] ] } },
{ "type": "Feature", "properties": { "edge_id": "E042", "from_node": "DL19", "to_node": "DL06", "from_name": "Làng Đồng trụ LangBiang", "to_name": "Thung Lũng Tình Yêu", "distance_km": 11.194, "base_time_min": 18.69, "average_speed_kph": 35.9, "road_type": "living_street|residential|secondary|tertiary", "one_way_share": 0.213, "direction": "directed", "congestion_level": 1, "risk_score": 0, "closed": false, "backbone_edge": true, "data_source": "OpenStreetMap + modeled speeds" }, "geometry": { "type": "LineString", "coordinates": [ [ 108.4347078, 12.0195502 ], [ 108.4499229, 11.9781853 ] ] } },
{ "type": "Feature", "properties": { "edge_id": "E043", "from_node": "DL06", "to_node": "DL21", "from_name": "Thung Lũng Tình Yêu", "to_name": "Chợ Đà Lạt", "distance_km": 5.783, "base_time_min": 9.11, "average_speed_kph": 38.1, "road_type": "residential|secondary", "one_way_share": 0.191, "direction": "directed", "congestion_level": 1, "risk_score": 0, "closed": false, "backbone_edge": false, "data_source": "OpenStreetMap + modeled speeds" }, "geometry": { "type": "LineString", "coordinates": [ [ 108.4499229, 11.9781853 ], [ 108.43721, 11.94352 ] ] } },
{ "type": "Feature", "properties": { "edge_id": "E044", "from_node": "DL21", "to_node": "DL06", "from_name": "Chợ Đà Lạt", "to_name": "Thung Lũng Tình Yêu", "distance_km": 5.88, "base_time_min": 9.31, "average_speed_kph": 37.9, "road_type": "residential|secondary", "one_way_share": 0.22, "direction": "directed", "congestion_level": 1, "risk_score": 0, "closed": false, "backbone_edge": false, "data_source": "OpenStreetMap + modeled speeds" }, "geometry": { "type": "LineString", "coordinates": [ [ 108.43721, 11.94352 ], [ 108.4499229, 11.9781853 ] ] } },
{ "type": "Feature", "properties": { "edge_id": "E045", "from_node": "DL06", "to_node": "DL22", "from_name": "Thung Lũng Tình Yêu", "to_name": "Hồ Xuân Hương", "distance_km": 4.92, "base_time_min": 7.38, "average_speed_kph": 40.0, "road_type": "secondary", "one_way_share": 0.13, "direction": "directed", "congestion_level": 1, "risk_score": 0, "closed": false, "backbone_edge": false, "data_source": "OpenStreetMap + modeled speeds" }, "geometry": { "type": "LineString", "coordinates": [ [ 108.4499229, 11.9781853 ], [ 108.4468389, 11.94185 ] ] } },
{ "type": "Feature", "properties": { "edge_id": "E046", "from_node": "DL22", "to_node": "DL06", "from_name": "Hồ Xuân Hương", "to_name": "Thung Lũng Tình Yêu", "distance_km": 4.955, "base_time_min": 7.43, "average_speed_kph": 40.0, "road_type": "secondary", "one_way_share": 0.2, "direction": "directed", "congestion_level": 1, "risk_score": 0, "closed": false, "backbone_edge": false, "data_source": "OpenStreetMap + modeled speeds" }, "geometry": { "type": "LineString", "coordinates": [ [ 108.4468389, 11.94185 ], [ 108.4499229, 11.9781853 ] ] } },
{ "type": "Feature", "properties": { "edge_id": "E047", "from_node": "DL07", "to_node": "DL11", "from_name": "Thác Datanla", "to_name": "Thác Prenn", "distance_km": 4.883, "base_time_min": 4.88, "average_speed_kph": 60.0, "road_type": "primary", "one_way_share": 0.25, "direction": "directed", "congestion_level": 1, "risk_score": 0, "closed": false, "backbone_edge": true, "data_source": "OpenStreetMap + modeled speeds" }, "geometry": { "type": "LineString", "coordinates": [ [ 108.4489764, 11.9012375 ], [ 108.4701041, 11.8765192 ] ] } },
{ "type": "Feature", "properties": { "edge_id": "E048", "from_node": "DL11", "to_node": "DL07", "from_name": "Thác Prenn", "to_name": "Thác Datanla", "distance_km": 6.249, "base_time_min": 6.89, "average_speed_kph": 54.4, "road_type": "motorway|motorway_link|primary|residential|trunk_link", "one_way_share": 0.636, "direction": "directed", "congestion_level": 1, "risk_score": 0, "closed": false, "backbone_edge": true, "data_source": "OpenStreetMap + modeled speeds" }, "geometry": { "type": "LineString", "coordinates": [ [ 108.4701041, 11.8765192 ], [ 108.4489764, 11.9012375 ] ] } },
{ "type": "Feature", "properties": { "edge_id": "E049", "from_node": "DL07", "to_node": "DL12", "from_name": "Thác Datanla", "to_name": "Đường hầm điêu khắc", "distance_km": 10.684, "base_time_min": 19.56, "average_speed_kph": 32.8, "road_type": "primary|secondary|tertiary", "one_way_share": 0.231, "direction": "directed", "congestion_level": 1, "risk_score": 0, "closed": false, "backbone_edge": false, "data_source": "OpenStreetMap + modeled speeds" }, "geometry": { "type": "LineString", "coordinates": [ [ 108.4489764, 11.9012375 ], [ 108.4112222, 11.8828709 ] ] } },
{ "type": "Feature", "properties": { "edge_id": "E050", "from_node": "DL12", "to_node": "DL07", "from_name": "Đường hầm điêu khắc", "to_name": "Thác Datanla", "distance_km": 10.65, "base_time_min": 19.51, "average_speed_kph": 32.8, "road_type": "primary_link|secondary|tertiary", "one_way_share": 0.25, "direction": "directed", "congestion_level": 1, "risk_score": 0, "closed": false, "backbone_edge": false, "data_source": "OpenStreetMap + modeled speeds" }, "geometry": { "type": "LineString", "coordinates": [ [ 108.4112222, 11.8828709 ], [ 108.4489764, 11.9012375 ] ] } },
{ "type": "Feature", "properties": { "edge_id": "E051", "from_node": "DL07", "to_node": "DL16", "from_name": "Thác Datanla", "to_name": "Hồ Tuyền Lâm", "distance_km": 1.442, "base_time_min": 2.36, "average_speed_kph": 36.7, "road_type": "primary|secondary|tertiary", "one_way_share": 0.6, "direction": "directed", "congestion_level": 1, "risk_score": 0, "closed": false, "backbone_edge": true, "data_source": "OpenStreetMap + modeled speeds" }, "geometry": { "type": "LineString", "coordinates": [ [ 108.4489764, 11.9012375 ], [ 108.4372983, 11.8995542 ] ] } },
{ "type": "Feature", "properties": { "edge_id": "E052", "from_node": "DL16", "to_node": "DL07", "from_name": "Hồ Tuyền Lâm", "to_name": "Thác Datanla", "distance_km": 1.408, "base_time_min": 2.3, "average_speed_kph": 36.7, "road_type": "primary_link|secondary|tertiary", "one_way_share": 0.75, "direction": "directed", "congestion_level": 1, "risk_score": 0, "closed": false, "backbone_edge": true, "data_source": "OpenStreetMap + modeled speeds" }, "geometry": { "type": "LineString", "coordinates": [ [ 108.4372983, 11.8995542 ], [ 108.4489764, 11.9012375 ] ] } },
{ "type": "Feature", "properties": { "edge_id": "E053", "from_node": "DL07", "to_node": "DL24", "from_name": "Thác Datanla", "to_name": "Thiền viện Trúc Lâm Đà Lạt", "distance_km": 1.871, "base_time_min": 2.82, "average_speed_kph": 39.8, "road_type": "primary|secondary|tertiary", "one_way_share": 0.375, "direction": "directed", "congestion_level": 1, "risk_score": 0, "closed": false, "backbone_edge": false, "data_source": "OpenStreetMap + modeled speeds" }, "geometry": { "type": "LineString", "coordinates": [ [ 108.4489764, 11.9012375 ], [ 108.43562, 11.90363 ] ] } },
{ "type": "Feature", "properties": { "edge_id": "E054", "from_node": "DL24", "to_node": "DL07", "from_name": "Thiền viện Trúc Lâm Đà Lạt", "to_name": "Thác Datanla", "distance_km": 1.837, "base_time_min": 2.77, "average_speed_kph": 39.8, "road_type": "primary_link|secondary|tertiary", "one_way_share": 0.429, "direction": "directed", "congestion_level": 1, "risk_score": 0, "closed": false, "backbone_edge": false, "data_source": "OpenStreetMap + modeled speeds" }, "geometry": { "type": "LineString", "coordinates": [ [ 108.43562, 11.90363 ], [ 108.4489764, 11.9012375 ] ] } },
{ "type": "Feature", "properties": { "edge_id": "E055", "from_node": "DL07", "to_node": "DL25", "from_name": "Thác Datanla", "to_name": "Bến xe Liên tỉnh Đà Lạt", "distance_km": 3.226, "base_time_min": 3.78, "average_speed_kph": 51.3, "road_type": "primary|tertiary", "one_way_share": 0.5, "direction": "directed", "congestion_level": 1, "risk_score": 0, "closed": false, "backbone_edge": false, "data_source": "OpenStreetMap + modeled speeds" }, "geometry": { "type": "LineString", "coordinates": [ [ 108.4489764, 11.9012375 ], [ 108.44551, 11.92688 ] ] } },
{ "type": "Feature", "properties": { "edge_id": "E056", "from_node": "DL25", "to_node": "DL07", "from_name": "Bến xe Liên tỉnh Đà Lạt", "to_name": "Thác Datanla", "distance_km": 3.21, "base_time_min": 3.75, "average_speed_kph": 51.3, "road_type": "primary|tertiary", "one_way_share": 0.444, "direction": "directed", "congestion_level": 1, "risk_score": 0, "closed": false, "backbone_edge": false, "data_source": "OpenStreetMap + modeled speeds" }, "geometry": { "type": "LineString", "coordinates": [ [ 108.44551, 11.92688 ], [ 108.4489764, 11.9012375 ] ] } },
{ "type": "Feature", "properties": { "edge_id": "E057", "from_node": "DL08", "to_node": "DL09", "from_name": "Devil Mountain Tourist Area", "to_name": "Làng Cu Lần", "distance_km": 12.358, "base_time_min": 18.54, "average_speed_kph": 40.0, "road_type": "secondary", "one_way_share": 0.0, "direction": "directed", "congestion_level": 1, "risk_score": 0, "closed": false, "backbone_edge": true, "data_source": "OpenStreetMap + modeled speeds" }, "geometry": { "type": "LineString", "coordinates": [ [ 108.3498182, 12.0020825 ], [ 108.3618731, 12.0265442 ] ] } },
{ "type": "Feature", "properties": { "edge_id": "E058", "from_node": "DL09", "to_node": "DL08", "from_name": "Làng Cu Lần", "to_name": "Devil Mountain Tourist Area", "distance_km": 12.358, "base_time_min": 18.54, "average_speed_kph": 40.0, "road_type": "secondary", "one_way_share": 0.0, "direction": "directed", "congestion_level": 1, "risk_score": 0, "closed": false, "backbone_edge": true, "data_source": "OpenStreetMap + modeled speeds" }, "geometry": { "type": "LineString", "coordinates": [ [ 108.3618731, 12.0265442 ], [ 108.3498182, 12.0020825 ] ] } },
{ "type": "Feature", "properties": { "edge_id": "E059", "from_node": "DL08", "to_node": "DL18", "from_name": "Devil Mountain Tourist Area", "to_name": "Làng Cổ Tích", "distance_km": 18.629, "base_time_min": 29.5, "average_speed_kph": 37.9, "road_type": "primary|primary_link|residential|secondary|tertiary|unclassified", "one_way_share": 0.094, "direction": "directed", "congestion_level": 1, "risk_score": 0, "closed": false, "backbone_edge": false, "data_source": "OpenStreetMap + modeled speeds" }, "geometry": { "type": "LineString", "coordinates": [ [ 108.3498182, 12.0020825 ], [ 108.4029778, 11.9485347 ] ] } },
{ "type": "Feature", "properties": { "edge_id": "E060", "from_node": "DL18", "to_node": "DL08", "from_name": "Làng Cổ Tích", "to_name": "Devil Mountain Tourist Area", "distance_km": 18.66, "base_time_min": 29.54, "average_speed_kph": 37.9, "road_type": "primary|primary_link|residential|secondary|tertiary|unclassified", "one_way_share": 0.147, "direction": "directed", "congestion_level": 1, "risk_score": 0, "closed": false, "backbone_edge": false, "data_source": "OpenStreetMap + modeled speeds" }, "geometry": { "type": "LineString", "coordinates": [ [ 108.4029778, 11.9485347 ], [ 108.3498182, 12.0020825 ] ] } },
{ "type": "Feature", "properties": { "edge_id": "E061", "from_node": "DL08", "to_node": "DL20", "from_name": "Devil Mountain Tourist Area", "to_name": "Thác Ankroet", "distance_km": 4.509, "base_time_min": 6.76, "average_speed_kph": 40.0, "road_type": "secondary", "one_way_share": 0.0, "direction": "directed", "congestion_level": 1, "risk_score": 0, "closed": false, "backbone_edge": true, "data_source": "OpenStreetMap + modeled speeds" }, "geometry": { "type": "LineString", "coordinates": [ [ 108.3498182, 12.0020825 ], [ 108.3672292, 11.9908607 ] ] } },
{ "type": "Feature", "properties": { "edge_id": "E062", "from_node": "DL20", "to_node": "DL08", "from_name": "Thác Ankroet", "to_name": "Devil Mountain Tourist Area", "distance_km": 4.509, "base_time_min": 6.76, "average_speed_kph": 40.0, "road_type": "secondary", "one_way_share": 0.0, "direction": "directed", "congestion_level": 1, "risk_score": 0, "closed": false, "backbone_edge": true, "data_source": "OpenStreetMap + modeled speeds" }, "geometry": { "type": "LineString", "coordinates": [ [ 108.3672292, 11.9908607 ], [ 108.3498182, 12.0020825 ] ] } },
{ "type": "Feature", "properties": { "edge_id": "E063", "from_node": "DL09", "to_node": "DL19", "from_name": "Làng Cu Lần", "to_name": "Làng Đồng trụ LangBiang", "distance_km": 22.268, "base_time_min": 35.31, "average_speed_kph": 37.8, "road_type": "living_street|residential|secondary|tertiary", "one_way_share": 0.137, "direction": "directed", "congestion_level": 1, "risk_score": 0, "closed": false, "backbone_edge": false, "data_source": "OpenStreetMap + modeled speeds" }, "geometry": { "type": "LineString", "coordinates": [ [ 108.3618731, 12.0265442 ], [ 108.4347078, 12.0195502 ] ] } },
{ "type": "Feature", "properties": { "edge_id": "E064", "from_node": "DL19", "to_node": "DL09", "from_name": "Làng Đồng trụ LangBiang", "to_name": "Làng Cu Lần", "distance_km": 22.296, "base_time_min": 35.35, "average_speed_kph": 37.8, "road_type": "living_street|residential|secondary|tertiary", "one_way_share": 0.189, "direction": "directed", "congestion_level": 1, "risk_score": 0, "closed": false, "backbone_edge": false, "data_source": "OpenStreetMap + modeled speeds" }, "geometry": { "type": "LineString", "coordinates": [ [ 108.4347078, 12.0195502 ], [ 108.3618731, 12.0265442 ] ] } },
{ "type": "Feature", "properties": { "edge_id": "E065", "from_node": "DL09", "to_node": "DL20", "from_name": "Làng Cu Lần", "to_name": "Thác Ankroet", "distance_km": 7.849, "base_time_min": 11.77, "average_speed_kph": 40.0, "road_type": "secondary", "one_way_share": 0.0, "direction": "directed", "congestion_level": 1, "risk_score": 0, "closed": false, "backbone_edge": false, "data_source": "OpenStreetMap + modeled speeds" }, "geometry": { "type": "LineString", "coordinates": [ [ 108.3618731, 12.0265442 ], [ 108.3672292, 11.9908607 ] ] } },
{ "type": "Feature", "properties": { "edge_id": "E066", "from_node": "DL20", "to_node": "DL09", "from_name": "Thác Ankroet", "to_name": "Làng Cu Lần", "distance_km": 7.849, "base_time_min": 11.77, "average_speed_kph": 40.0, "road_type": "secondary", "one_way_share": 0.0, "direction": "directed", "congestion_level": 1, "risk_score": 0, "closed": false, "backbone_edge": false, "data_source": "OpenStreetMap + modeled speeds" }, "geometry": { "type": "LineString", "coordinates": [ [ 108.3672292, 11.9908607 ], [ 108.3618731, 12.0265442 ] ] } },
{ "type": "Feature", "properties": { "edge_id": "E067", "from_node": "DL10", "to_node": "DL15", "from_name": "Vườn dâu Công nghệ cao Bình Yên", "to_name": "Nhà thờ Cam Ly", "distance_km": 1.285, "base_time_min": 3.85, "average_speed_kph": 20.0, "road_type": "residential", "one_way_share": 0.0, "direction": "directed", "congestion_level": 1, "risk_score": 0, "closed": false, "backbone_edge": false, "data_source": "OpenStreetMap + modeled speeds" }, "geometry": { "type": "LineString", "coordinates": [ [ 108.4271423, 11.9487973 ], [ 108.4224568, 11.9441573 ] ] } },
{ "type": "Feature", "properties": { "edge_id": "E068", "from_node": "DL15", "to_node": "DL10", "from_name": "Nhà thờ Cam Ly", "to_name": "Vườn dâu Công nghệ cao Bình Yên", "distance_km": 1.285, "base_time_min": 3.85, "average_speed_kph": 20.0, "road_type": "residential", "one_way_share": 0.0, "direction": "directed", "congestion_level": 1, "risk_score": 0, "closed": false, "backbone_edge": false, "data_source": "OpenStreetMap + modeled speeds" }, "geometry": { "type": "LineString", "coordinates": [ [ 108.4224568, 11.9441573 ], [ 108.4271423, 11.9487973 ] ] } },
{ "type": "Feature", "properties": { "edge_id": "E069", "from_node": "DL10", "to_node": "DL18", "from_name": "Vườn dâu Công nghệ cao Bình Yên", "to_name": "Làng Cổ Tích", "distance_km": 4.685, "base_time_min": 10.93, "average_speed_kph": 25.7, "road_type": "primary|primary_link|residential|tertiary|unclassified", "one_way_share": 0.207, "direction": "directed", "congestion_level": 1, "risk_score": 0, "closed": false, "backbone_edge": false, "data_source": "OpenStreetMap + modeled speeds" }, "geometry": { "type": "LineString", "coordinates": [ [ 108.4271423, 11.9487973 ], [ 108.4029778, 11.9485347 ] ] } },
{ "type": "Feature", "properties": { "edge_id": "E070", "from_node": "DL18", "to_node": "DL10", "from_name": "Làng Cổ Tích", "to_name": "Vườn dâu Công nghệ cao Bình Yên", "distance_km": 4.722, "base_time_min": 10.99, "average_speed_kph": 25.8, "road_type": "primary|primary_link|residential|tertiary|unclassified", "one_way_share": 0.138, "direction": "directed", "congestion_level": 1, "risk_score": 0, "closed": false, "backbone_edge": false, "data_source": "OpenStreetMap + modeled speeds" }, "geometry": { "type": "LineString", "coordinates": [ [ 108.4029778, 11.9485347 ], [ 108.4271423, 11.9487973 ] ] } },
{ "type": "Feature", "properties": { "edge_id": "E071", "from_node": "DL10", "to_node": "DL19", "from_name": "Vườn dâu Công nghệ cao Bình Yên", "to_name": "Làng Đồng trụ LangBiang", "distance_km": 11.843, "base_time_min": 20.99, "average_speed_kph": 33.8, "road_type": "living_street|residential|secondary|tertiary", "one_way_share": 0.197, "direction": "directed", "congestion_level": 1, "risk_score": 0, "closed": false, "backbone_edge": false, "data_source": "OpenStreetMap + modeled speeds" }, "geometry": { "type": "LineString", "coordinates": [ [ 108.4271423, 11.9487973 ], [ 108.4347078, 12.0195502 ] ] } },
{ "type": "Feature", "properties": { "edge_id": "E072", "from_node": "DL19", "to_node": "DL10", "from_name": "Làng Đồng trụ LangBiang", "to_name": "Vườn dâu Công nghệ cao Bình Yên", "distance_km": 11.841, "base_time_min": 20.99, "average_speed_kph": 33.8, "road_type": "living_street|residential|secondary|tertiary", "one_way_share": 0.222, "direction": "directed", "congestion_level": 1, "risk_score": 0, "closed": false, "backbone_edge": false, "data_source": "OpenStreetMap + modeled speeds" }, "geometry": { "type": "LineString", "coordinates": [ [ 108.4347078, 12.0195502 ], [ 108.4271423, 11.9487973 ] ] } },
{ "type": "Feature", "properties": { "edge_id": "E073", "from_node": "DL10", "to_node": "DL21", "from_name": "Vườn dâu Công nghệ cao Bình Yên", "to_name": "Chợ Đà Lạt", "distance_km": 2.429, "base_time_min": 5.22, "average_speed_kph": 27.9, "road_type": "residential|secondary|tertiary", "one_way_share": 0.192, "direction": "directed", "congestion_level": 1, "risk_score": 0, "closed": false, "backbone_edge": false, "data_source": "OpenStreetMap + modeled speeds" }, "geometry": { "type": "LineString", "coordinates": [ [ 108.4271423, 11.9487973 ], [ 108.43721, 11.94352 ] ] } },
{ "type": "Feature", "properties": { "edge_id": "E074", "from_node": "DL21", "to_node": "DL10", "from_name": "Chợ Đà Lạt", "to_name": "Vườn dâu Công nghệ cao Bình Yên", "distance_km": 2.426, "base_time_min": 5.26, "average_speed_kph": 27.7, "road_type": "residential|secondary|tertiary", "one_way_share": 0.192, "direction": "directed", "congestion_level": 1, "risk_score": 0, "closed": false, "backbone_edge": false, "data_source": "OpenStreetMap + modeled speeds" }, "geometry": { "type": "LineString", "coordinates": [ [ 108.43721, 11.94352 ], [ 108.4271423, 11.9487973 ] ] } },
{ "type": "Feature", "properties": { "edge_id": "E075", "from_node": "DL11", "to_node": "DL16", "from_name": "Thác Prenn", "to_name": "Hồ Tuyền Lâm", "distance_km": 7.691, "base_time_min": 9.24, "average_speed_kph": 49.9, "road_type": "motorway|motorway_link|primary|residential|secondary|tertiary|trunk_link", "one_way_share": 0.625, "direction": "directed", "congestion_level": 1, "risk_score": 0, "closed": false, "backbone_edge": false, "data_source": "OpenStreetMap + modeled speeds" }, "geometry": { "type": "LineString", "coordinates": [ [ 108.4701041, 11.8765192 ], [ 108.4372983, 11.8995542 ] ] } },
{ "type": "Feature", "properties": { "edge_id": "E076", "from_node": "DL16", "to_node": "DL11", "from_name": "Hồ Tuyền Lâm", "to_name": "Thác Prenn", "distance_km": 6.291, "base_time_min": 7.19, "average_speed_kph": 52.5, "road_type": "primary|primary_link|secondary|tertiary", "one_way_share": 0.5, "direction": "directed", "congestion_level": 1, "risk_score": 0, "closed": false, "backbone_edge": false, "data_source": "OpenStreetMap + modeled speeds" }, "geometry": { "type": "LineString", "coordinates": [ [ 108.4372983, 11.8995542 ], [ 108.4701041, 11.8765192 ] ] } },
{ "type": "Feature", "properties": { "edge_id": "E077", "from_node": "DL11", "to_node": "DL24", "from_name": "Thác Prenn", "to_name": "Thiền viện Trúc Lâm Đà Lạt", "distance_km": 8.121, "base_time_min": 9.71, "average_speed_kph": 50.2, "road_type": "motorway|motorway_link|primary|residential|secondary|tertiary|trunk_link", "one_way_share": 0.526, "direction": "directed", "congestion_level": 1, "risk_score": 0, "closed": false, "backbone_edge": false, "data_source": "OpenStreetMap + modeled speeds" }, "geometry": { "type": "LineString", "coordinates": [ [ 108.4701041, 11.8765192 ], [ 108.43562, 11.90363 ] ] } },
{ "type": "Feature", "properties": { "edge_id": "E078", "from_node": "DL24", "to_node": "DL11", "from_name": "Thiền viện Trúc Lâm Đà Lạt", "to_name": "Thác Prenn", "distance_km": 6.721, "base_time_min": 7.65, "average_speed_kph": 52.7, "road_type": "primary|primary_link|secondary|tertiary", "one_way_share": 0.364, "direction": "directed", "congestion_level": 1, "risk_score": 0, "closed": false, "backbone_edge": false, "data_source": "OpenStreetMap + modeled speeds" }, "geometry": { "type": "LineString", "coordinates": [ [ 108.43562, 11.90363 ], [ 108.4701041, 11.8765192 ] ] } },
{ "type": "Feature", "properties": { "edge_id": "E079", "from_node": "DL12", "to_node": "DL16", "from_name": "Đường hầm điêu khắc", "to_name": "Hồ Tuyền Lâm", "distance_km": 10.106, "base_time_min": 18.93, "average_speed_kph": 32.0, "road_type": "secondary|tertiary", "one_way_share": 0.0, "direction": "directed", "congestion_level": 1, "risk_score": 0, "closed": false, "backbone_edge": true, "data_source": "OpenStreetMap + modeled speeds" }, "geometry": { "type": "LineString", "coordinates": [ [ 108.4112222, 11.8828709 ], [ 108.4372983, 11.8995542 ] ] } },
{ "type": "Feature", "properties": { "edge_id": "E080", "from_node": "DL16", "to_node": "DL12", "from_name": "Hồ Tuyền Lâm", "to_name": "Đường hầm điêu khắc", "distance_km": 10.106, "base_time_min": 18.93, "average_speed_kph": 32.0, "road_type": "secondary|tertiary", "one_way_share": 0.0, "direction": "directed", "congestion_level": 1, "risk_score": 0, "closed": false, "backbone_edge": true, "data_source": "OpenStreetMap + modeled speeds" }, "geometry": { "type": "LineString", "coordinates": [ [ 108.4372983, 11.8995542 ], [ 108.4112222, 11.8828709 ] ] } },
{ "type": "Feature", "properties": { "edge_id": "E081", "from_node": "DL12", "to_node": "DL24", "from_name": "Đường hầm điêu khắc", "to_name": "Thiền viện Trúc Lâm Đà Lạt", "distance_km": 8.919, "base_time_min": 16.98, "average_speed_kph": 31.5, "road_type": "secondary|tertiary", "one_way_share": 0.0, "direction": "directed", "congestion_level": 1, "risk_score": 0, "closed": false, "backbone_edge": false, "data_source": "OpenStreetMap + modeled speeds" }, "geometry": { "type": "LineString", "coordinates": [ [ 108.4112222, 11.8828709 ], [ 108.43562, 11.90363 ] ] } },
{ "type": "Feature", "properties": { "edge_id": "E082", "from_node": "DL24", "to_node": "DL12", "from_name": "Thiền viện Trúc Lâm Đà Lạt", "to_name": "Đường hầm điêu khắc", "distance_km": 8.919, "base_time_min": 16.98, "average_speed_kph": 31.5, "road_type": "secondary|tertiary", "one_way_share": 0.0, "direction": "directed", "congestion_level": 1, "risk_score": 0, "closed": false, "backbone_edge": false, "data_source": "OpenStreetMap + modeled speeds" }, "geometry": { "type": "LineString", "coordinates": [ [ 108.43562, 11.90363 ], [ 108.4112222, 11.8828709 ] ] } },
{ "type": "Feature", "properties": { "edge_id": "E083", "from_node": "DL13", "to_node": "DL15", "from_name": "Dinh III Bảo Đại", "to_name": "Nhà thờ Cam Ly", "distance_km": 3.577, "base_time_min": 7.75, "average_speed_kph": 27.7, "road_type": "primary|residential|secondary|tertiary", "one_way_share": 0.161, "direction": "directed", "congestion_level": 1, "risk_score": 0, "closed": false, "backbone_edge": false, "data_source": "OpenStreetMap + modeled speeds" }, "geometry": { "type": "LineString", "coordinates": [ [ 108.4296735, 11.9300468 ], [ 108.4224568, 11.9441573 ] ] } },
{ "type": "Feature", "properties": { "edge_id": "E084", "from_node": "DL15", "to_node": "DL13", "from_name": "Nhà thờ Cam Ly", "to_name": "Dinh III Bảo Đại", "distance_km": 3.39, "base_time_min": 7.53, "average_speed_kph": 27.0, "road_type": "primary|residential|secondary|tertiary", "one_way_share": 0.133, "direction": "directed", "congestion_level": 1, "risk_score": 0, "closed": false, "backbone_edge": false, "data_source": "OpenStreetMap + modeled speeds" }, "geometry": { "type": "LineString", "coordinates": [ [ 108.4224568, 11.9441573 ], [ 108.4296735, 11.9300468 ] ] } },
{ "type": "Feature", "properties": { "edge_id": "E085", "from_node": "DL13", "to_node": "DL17", "from_name": "Dinh III Bảo Đại", "to_name": "Khu du lịch sinh thái Cao Nguyên Hoa Đà Lạt", "distance_km": 9.05, "base_time_min": 22.26, "average_speed_kph": 24.4, "road_type": "primary|primary_link|residential|tertiary|unclassified", "one_way_share": 0.306, "direction": "directed", "congestion_level": 1, "risk_score": 0, "closed": false, "backbone_edge": false, "data_source": "OpenStreetMap + modeled speeds" }, "geometry": { "type": "LineString", "coordinates": [ [ 108.4296735, 11.9300468 ], [ 108.3715298, 11.926564 ] ] } },
{ "type": "Feature", "properties": { "edge_id": "E086", "from_node": "DL17", "to_node": "DL13", "from_name": "Khu du lịch sinh thái Cao Nguyên Hoa Đà Lạt", "to_name": "Dinh III Bảo Đại", "distance_km": 8.843, "base_time_min": 22.01, "average_speed_kph": 24.1, "road_type": "primary|primary_link|residential|tertiary|unclassified", "one_way_share": 0.219, "direction": "directed", "congestion_level": 1, "risk_score": 0, "closed": false, "backbone_edge": false, "data_source": "OpenStreetMap + modeled speeds" }, "geometry": { "type": "LineString", "coordinates": [ [ 108.3715298, 11.926564 ], [ 108.4296735, 11.9300468 ] ] } },
{ "type": "Feature", "properties": { "edge_id": "E087", "from_node": "DL13", "to_node": "DL21", "from_name": "Dinh III Bảo Đại", "to_name": "Chợ Đà Lạt", "distance_km": 2.451, "base_time_min": 4.84, "average_speed_kph": 30.4, "road_type": "primary|primary_link|residential|secondary|tertiary", "one_way_share": 0.333, "direction": "directed", "congestion_level": 1, "risk_score": 0, "closed": false, "backbone_edge": false, "data_source": "OpenStreetMap + modeled speeds" }, "geometry": { "type": "LineString", "coordinates": [ [ 108.4296735, 11.9300468 ], [ 108.43721, 11.94352 ] ] } },
{ "type": "Feature", "properties": { "edge_id": "E088", "from_node": "DL21", "to_node": "DL13", "from_name": "Chợ Đà Lạt", "to_name": "Dinh III Bảo Đại", "distance_km": 2.438, "base_time_min": 4.89, "average_speed_kph": 29.9, "road_type": "primary|residential|secondary|tertiary", "one_way_share": 0.385, "direction": "directed", "congestion_level": 1, "risk_score": 0, "closed": false, "backbone_edge": false, "data_source": "OpenStreetMap + modeled speeds" }, "geometry": { "type": "LineString", "coordinates": [ [ 108.43721, 11.94352 ], [ 108.4296735, 11.9300468 ] ] } },
{ "type": "Feature", "properties": { "edge_id": "E089", "from_node": "DL13", "to_node": "DL25", "from_name": "Dinh III Bảo Đại", "to_name": "Bến xe Liên tỉnh Đà Lạt", "distance_km": 2.865, "base_time_min": 6.05, "average_speed_kph": 28.4, "road_type": "residential|tertiary", "one_way_share": 0.0, "direction": "directed", "congestion_level": 1, "risk_score": 0, "closed": false, "backbone_edge": false, "data_source": "OpenStreetMap + modeled speeds" }, "geometry": { "type": "LineString", "coordinates": [ [ 108.4296735, 11.9300468 ], [ 108.44551, 11.92688 ] ] } },
{ "type": "Feature", "properties": { "edge_id": "E090", "from_node": "DL25", "to_node": "DL13", "from_name": "Bến xe Liên tỉnh Đà Lạt", "to_name": "Dinh III Bảo Đại", "distance_km": 2.865, "base_time_min": 6.05, "average_speed_kph": 28.4, "road_type": "residential|tertiary", "one_way_share": 0.0, "direction": "directed", "congestion_level": 1, "risk_score": 0, "closed": false, "backbone_edge": false, "data_source": "OpenStreetMap + modeled speeds" }, "geometry": { "type": "LineString", "coordinates": [ [ 108.44551, 11.92688 ], [ 108.4296735, 11.9300468 ] ] } },
{ "type": "Feature", "properties": { "edge_id": "E091", "from_node": "DL15", "to_node": "DL17", "from_name": "Nhà thờ Cam Ly", "to_name": "Khu du lịch sinh thái Cao Nguyên Hoa Đà Lạt", "distance_km": 8.942, "base_time_min": 23.77, "average_speed_kph": 22.6, "road_type": "primary|primary_link|residential|tertiary|unclassified", "one_way_share": 0.182, "direction": "directed", "congestion_level": 1, "risk_score": 0, "closed": false, "backbone_edge": false, "data_source": "OpenStreetMap + modeled speeds" }, "geometry": { "type": "LineString", "coordinates": [ [ 108.4224568, 11.9441573 ], [ 108.3715298, 11.926564 ] ] } },
{ "type": "Feature", "properties": { "edge_id": "E092", "from_node": "DL17", "to_node": "DL15", "from_name": "Khu du lịch sinh thái Cao Nguyên Hoa Đà Lạt", "to_name": "Nhà thờ Cam Ly", "distance_km": 9.199, "base_time_min": 24.49, "average_speed_kph": 22.5, "road_type": "primary|primary_link|residential|tertiary|unclassified", "one_way_share": 0.114, "direction": "directed", "congestion_level": 1, "risk_score": 0, "closed": false, "backbone_edge": false, "data_source": "OpenStreetMap + modeled speeds" }, "geometry": { "type": "LineString", "coordinates": [ [ 108.3715298, 11.926564 ], [ 108.4224568, 11.9441573 ] ] } },
{ "type": "Feature", "properties": { "edge_id": "E093", "from_node": "DL15", "to_node": "DL18", "from_name": "Nhà thờ Cam Ly", "to_name": "Làng Cổ Tích", "distance_km": 4.897, "base_time_min": 11.63, "average_speed_kph": 25.3, "road_type": "primary|primary_link|residential|tertiary|unclassified", "one_way_share": 0.207, "direction": "directed", "congestion_level": 1, "risk_score": 0, "closed": false, "backbone_edge": true, "data_source": "OpenStreetMap + modeled speeds" }, "geometry": { "type": "LineString", "coordinates": [ [ 108.4224568, 11.9441573 ], [ 108.4029778, 11.9485347 ] ] } },
{ "type": "Feature", "properties": { "edge_id": "E094", "from_node": "DL18", "to_node": "DL15", "from_name": "Làng Cổ Tích", "to_name": "Nhà thờ Cam Ly", "distance_km": 5.154, "base_time_min": 12.35, "average_speed_kph": 25.0, "road_type": "primary|primary_link|residential|tertiary|unclassified", "one_way_share": 0.129, "direction": "directed", "congestion_level": 1, "risk_score": 0, "closed": false, "backbone_edge": true, "data_source": "OpenStreetMap + modeled speeds" }, "geometry": { "type": "LineString", "coordinates": [ [ 108.4029778, 11.9485347 ], [ 108.4224568, 11.9441573 ] ] } },
{ "type": "Feature", "properties": { "edge_id": "E095", "from_node": "DL16", "to_node": "DL24", "from_name": "Hồ Tuyền Lâm", "to_name": "Thiền viện Trúc Lâm Đà Lạt", "distance_km": 1.294, "base_time_min": 2.19, "average_speed_kph": 35.4, "road_type": "secondary|tertiary", "one_way_share": 0.0, "direction": "directed", "congestion_level": 1, "risk_score": 0, "closed": false, "backbone_edge": true, "data_source": "OpenStreetMap + modeled speeds" }, "geometry": { "type": "LineString", "coordinates": [ [ 108.4372983, 11.8995542 ], [ 108.43562, 11.90363 ] ] } },
{ "type": "Feature", "properties": { "edge_id": "E096", "from_node": "DL24", "to_node": "DL16", "from_name": "Thiền viện Trúc Lâm Đà Lạt", "to_name": "Hồ Tuyền Lâm", "distance_km": 1.294, "base_time_min": 2.19, "average_speed_kph": 35.4, "road_type": "secondary|tertiary", "one_way_share": 0.0, "direction": "directed", "congestion_level": 1, "risk_score": 0, "closed": false, "backbone_edge": true, "data_source": "OpenStreetMap + modeled speeds" }, "geometry": { "type": "LineString", "coordinates": [ [ 108.43562, 11.90363 ], [ 108.4372983, 11.8995542 ] ] } },
{ "type": "Feature", "properties": { "edge_id": "E097", "from_node": "DL16", "to_node": "DL25", "from_name": "Hồ Tuyền Lâm", "to_name": "Bến xe Liên tỉnh Đà Lạt", "distance_km": 4.574, "base_time_min": 6.04, "average_speed_kph": 45.5, "road_type": "primary|secondary|tertiary", "one_way_share": 0.615, "direction": "directed", "congestion_level": 1, "risk_score": 0, "closed": false, "backbone_edge": false, "data_source": "OpenStreetMap + modeled speeds" }, "geometry": { "type": "LineString", "coordinates": [ [ 108.4372983, 11.8995542 ], [ 108.44551, 11.92688 ] ] } },
{ "type": "Feature", "properties": { "edge_id": "E098", "from_node": "DL25", "to_node": "DL16", "from_name": "Bến xe Liên tỉnh Đà Lạt", "to_name": "Hồ Tuyền Lâm", "distance_km": 4.537, "base_time_min": 5.98, "average_speed_kph": 45.5, "road_type": "primary|primary_link|secondary|tertiary", "one_way_share": 0.636, "direction": "directed", "congestion_level": 1, "risk_score": 0, "closed": false, "backbone_edge": false, "data_source": "OpenStreetMap + modeled speeds" }, "geometry": { "type": "LineString", "coordinates": [ [ 108.44551, 11.92688 ], [ 108.4372983, 11.8995542 ] ] } },
{ "type": "Feature", "properties": { "edge_id": "E099", "from_node": "DL17", "to_node": "DL18", "from_name": "Khu du lịch sinh thái Cao Nguyên Hoa Đà Lạt", "to_name": "Làng Cổ Tích", "distance_km": 5.555, "base_time_min": 16.67, "average_speed_kph": 20.0, "road_type": "residential|unclassified", "one_way_share": 0.0, "direction": "directed", "congestion_level": 1, "risk_score": 0, "closed": false, "backbone_edge": true, "data_source": "OpenStreetMap + modeled speeds" }, "geometry": { "type": "LineString", "coordinates": [ [ 108.3715298, 11.926564 ], [ 108.4029778, 11.9485347 ] ] } },
{ "type": "Feature", "properties": { "edge_id": "E100", "from_node": "DL18", "to_node": "DL17", "from_name": "Làng Cổ Tích", "to_name": "Khu du lịch sinh thái Cao Nguyên Hoa Đà Lạt", "distance_km": 5.555, "base_time_min": 16.67, "average_speed_kph": 20.0, "road_type": "residential|unclassified", "one_way_share": 0.0, "direction": "directed", "congestion_level": 1, "risk_score": 0, "closed": false, "backbone_edge": true, "data_source": "OpenStreetMap + modeled speeds" }, "geometry": { "type": "LineString", "coordinates": [ [ 108.4029778, 11.9485347 ], [ 108.3715298, 11.926564 ] ] } },
{ "type": "Feature", "properties": { "edge_id": "E101", "from_node": "DL18", "to_node": "DL20", "from_name": "Làng Cổ Tích", "to_name": "Thác Ankroet", "distance_km": 14.151, "base_time_min": 22.77, "average_speed_kph": 37.3, "road_type": "primary|primary_link|residential|secondary|tertiary|unclassified", "one_way_share": 0.152, "direction": "directed", "congestion_level": 1, "risk_score": 0, "closed": false, "backbone_edge": true, "data_source": "OpenStreetMap + modeled speeds" }, "geometry": { "type": "LineString", "coordinates": [ [ 108.4029778, 11.9485347 ], [ 108.3672292, 11.9908607 ] ] } },
{ "type": "Feature", "properties": { "edge_id": "E102", "from_node": "DL20", "to_node": "DL18", "from_name": "Thác Ankroet", "to_name": "Làng Cổ Tích", "distance_km": 14.12, "base_time_min": 22.74, "average_speed_kph": 37.3, "road_type": "primary|primary_link|residential|secondary|tertiary|unclassified", "one_way_share": 0.097, "direction": "directed", "congestion_level": 1, "risk_score": 0, "closed": false, "backbone_edge": true, "data_source": "OpenStreetMap + modeled speeds" }, "geometry": { "type": "LineString", "coordinates": [ [ 108.3672292, 11.9908607 ], [ 108.4029778, 11.9485347 ] ] } },
{ "type": "Feature", "properties": { "edge_id": "E103", "from_node": "DL21", "to_node": "DL22", "from_name": "Chợ Đà Lạt", "to_name": "Hồ Xuân Hương", "distance_km": 1.734, "base_time_min": 3.09, "average_speed_kph": 33.7, "road_type": "residential|secondary", "one_way_share": 0.611, "direction": "directed", "congestion_level": 1, "risk_score": 0, "closed": false, "backbone_edge": false, "data_source": "OpenStreetMap + modeled speeds" }, "geometry": { "type": "LineString", "coordinates": [ [ 108.43721, 11.94352 ], [ 108.4468389, 11.94185 ] ] } },
{ "type": "Feature", "properties": { "edge_id": "E104", "from_node": "DL22", "to_node": "DL21", "from_name": "Hồ Xuân Hương", "to_name": "Chợ Đà Lạt", "distance_km": 1.624, "base_time_min": 2.87, "average_speed_kph": 33.9, "road_type": "residential|secondary", "one_way_share": 0.417, "direction": "directed", "congestion_level": 1, "risk_score": 0, "closed": false, "backbone_edge": false, "data_source": "OpenStreetMap + modeled speeds" }, "geometry": { "type": "LineString", "coordinates": [ [ 108.4468389, 11.94185 ], [ 108.43721, 11.94352 ] ] } },
{ "type": "Feature", "properties": { "edge_id": "E105", "from_node": "DL21", "to_node": "DL23", "from_name": "Chợ Đà Lạt", "to_name": "Quảng trường Lâm Viên", "distance_km": 1.774, "base_time_min": 3.14, "average_speed_kph": 33.9, "road_type": "primary|residential|secondary", "one_way_share": 0.85, "direction": "directed", "congestion_level": 1, "risk_score": 0, "closed": false, "backbone_edge": true, "data_source": "OpenStreetMap + modeled speeds" }, "geometry": { "type": "LineString", "coordinates": [ [ 108.43721, 11.94352 ], [ 108.44501, 11.93884 ] ] } },
{ "type": "Feature", "properties": { "edge_id": "E106", "from_node": "DL23", "to_node": "DL21", "from_name": "Quảng trường Lâm Viên", "to_name": "Chợ Đà Lạt", "distance_km": 1.261, "base_time_min": 2.33, "average_speed_kph": 32.5, "road_type": "residential|secondary", "one_way_share": 0.727, "direction": "directed", "congestion_level": 1, "risk_score": 0, "closed": false, "backbone_edge": true, "data_source": "OpenStreetMap + modeled speeds" }, "geometry": { "type": "LineString", "coordinates": [ [ 108.44501, 11.93884 ], [ 108.43721, 11.94352 ] ] } },
{ "type": "Feature", "properties": { "edge_id": "E107", "from_node": "DL22", "to_node": "DL23", "from_name": "Hồ Xuân Hương", "to_name": "Quảng trường Lâm Viên", "distance_km": 0.636, "base_time_min": 1.33, "average_speed_kph": 28.6, "road_type": "residential|secondary|tertiary", "one_way_share": 0.0, "direction": "directed", "congestion_level": 1, "risk_score": 0, "closed": false, "backbone_edge": true, "data_source": "OpenStreetMap + modeled speeds" }, "geometry": { "type": "LineString", "coordinates": [ [ 108.4468389, 11.94185 ], [ 108.44501, 11.93884 ] ] } },
{ "type": "Feature", "properties": { "edge_id": "E108", "from_node": "DL23", "to_node": "DL22", "from_name": "Quảng trường Lâm Viên", "to_name": "Hồ Xuân Hương", "distance_km": 0.636, "base_time_min": 1.33, "average_speed_kph": 28.6, "road_type": "residential|secondary|tertiary", "one_way_share": 0.0, "direction": "directed", "congestion_level": 1, "risk_score": 0, "closed": false, "backbone_edge": true, "data_source": "OpenStreetMap + modeled speeds" }, "geometry": { "type": "LineString", "coordinates": [ [ 108.44501, 11.93884 ], [ 108.4468389, 11.94185 ] ] } },
{ "type": "Feature", "properties": { "edge_id": "E109", "from_node": "DL22", "to_node": "DL25", "from_name": "Hồ Xuân Hương", "to_name": "Bến xe Liên tỉnh Đà Lạt", "distance_km": 2.6, "base_time_min": 4.03, "average_speed_kph": 38.7, "road_type": "primary|secondary|tertiary", "one_way_share": 0.619, "direction": "directed", "congestion_level": 1, "risk_score": 0, "closed": false, "backbone_edge": false, "data_source": "OpenStreetMap + modeled speeds" }, "geometry": { "type": "LineString", "coordinates": [ [ 108.4468389, 11.94185 ], [ 108.44551, 11.92688 ] ] } },
{ "type": "Feature", "properties": { "edge_id": "E110", "from_node": "DL25", "to_node": "DL22", "from_name": "Bến xe Liên tỉnh Đà Lạt", "to_name": "Hồ Xuân Hương", "distance_km": 2.58, "base_time_min": 3.98, "average_speed_kph": 38.9, "road_type": "primary|primary_link|secondary|tertiary", "one_way_share": 0.65, "direction": "directed", "congestion_level": 1, "risk_score": 0, "closed": false, "backbone_edge": false, "data_source": "OpenStreetMap + modeled speeds" }, "geometry": { "type": "LineString", "coordinates": [ [ 108.44551, 11.92688 ], [ 108.4468389, 11.94185 ] ] } },
{ "type": "Feature", "properties": { "edge_id": "E111", "from_node": "DL23", "to_node": "DL25", "from_name": "Quảng trường Lâm Viên", "to_name": "Bến xe Liên tỉnh Đà Lạt", "distance_km": 2.198, "base_time_min": 3.19, "average_speed_kph": 41.3, "road_type": "primary|secondary|tertiary", "one_way_share": 0.875, "direction": "directed", "congestion_level": 1, "risk_score": 0, "closed": false, "backbone_edge": true, "data_source": "OpenStreetMap + modeled speeds" }, "geometry": { "type": "LineString", "coordinates": [ [ 108.44501, 11.93884 ], [ 108.44551, 11.92688 ] ] } },
{ "type": "Feature", "properties": { "edge_id": "E112", "from_node": "DL25", "to_node": "DL23", "from_name": "Bến xe Liên tỉnh Đà Lạt", "to_name": "Quảng trường Lâm Viên", "distance_km": 2.021, "base_time_min": 2.91, "average_speed_kph": 41.6, "road_type": "primary|secondary|tertiary", "one_way_share": 0.941, "direction": "directed", "congestion_level": 1, "risk_score": 0, "closed": false, "backbone_edge": true, "data_source": "OpenStreetMap + modeled speeds" }, "geometry": { "type": "LineString", "coordinates": [ [ 108.44551, 11.92688 ], [ 108.44501, 11.93884 ] ] } },
{ "type": "Feature", "properties": { "edge_id": "E113", "from_node": "DL24", "to_node": "DL25", "from_name": "Thiền viện Trúc Lâm Đà Lạt", "to_name": "Bến xe Liên tỉnh Đà Lạt", "distance_km": 5.003, "base_time_min": 6.5, "average_speed_kph": 46.2, "road_type": "primary|secondary|tertiary", "one_way_share": 0.5, "direction": "directed", "congestion_level": 1, "risk_score": 0, "closed": false, "backbone_edge": true, "data_source": "OpenStreetMap + modeled speeds" }, "geometry": { "type": "LineString", "coordinates": [ [ 108.43562, 11.90363 ], [ 108.44551, 11.92688 ] ] } },
{ "type": "Feature", "properties": { "edge_id": "E114", "from_node": "DL25", "to_node": "DL24", "from_name": "Bến xe Liên tỉnh Đà Lạt", "to_name": "Thiền viện Trúc Lâm Đà Lạt", "distance_km": 4.966, "base_time_min": 6.44, "average_speed_kph": 46.2, "road_type": "primary|primary_link|secondary|tertiary", "one_way_share": 0.5, "direction": "directed", "congestion_level": 1, "risk_score": 0, "closed": false, "backbone_edge": true, "data_source": "OpenStreetMap + modeled speeds" }, "geometry": { "type": "LineString", "coordinates": [ [ 108.44551, 11.92688 ], [ 108.43562, 11.90363 ] ] } }
]
}
