{
"type": "FeatureCollection",
"name": "nodes_snapped",
"crs": { "type": "name", "properties": { "name": "urn:ogc:def:crs:OGC:1.3:CRS84" } },
"features": [
{ "type": "Feature", "properties": { "node_id": "DL01", "osm_id": "relation/7758125", "name_vi": "Nhà lao thiếu nhi Đà Lạt", "name_en": "Đà Lạt Youth Prison Museum", "category": "museum", "opening_hours": null, "longitude": 108.4706527, "latitude": 11.9521331, "road_node": 13551253122, "snap_distance_m": 175.7 }, "geometry": { "type": "Point", "coordinates": [ 108.4706527, 11.9521331 ] } },
{ "type": "Feature", "properties": { "node_id": "DL02", "osm_id": "relation/17877171", "name_vi": "Ga Đà Lạt", "name_en": "Da Lat Railway Station", "category": "heritage", "opening_hours": null, "longitude": 108.4544798, "latitude": 11.9416078, "road_node": 1392345419, "snap_distance_m": 102.2 }, "geometry": { "type": "Point", "coordinates": [ 108.4544798, 11.9416078 ] } },
{ "type": "Feature", "properties": { "node_id": "DL03", "osm_id": "relation/20657435", "name_vi": "Crazy House", "name_en": "Hang Nga Crazy House", "category": "architecture", "opening_hours": "Mo-Su 08:30-19:00", "longitude": 108.4306807, "latitude": 11.9345615, "road_node": 669359914, "snap_distance_m": 94.1 }, "geometry": { "type": "Point", "coordinates": [ 108.4306807, 11.9345615 ] } },
{ "type": "Feature", "properties": { "node_id": "DL04", "osm_id": "way/361692317", "name_vi": "Museum Madam De Dalat", "name_en": null, "category": "museum", "opening_hours": null, "longitude": 108.4262529, "latitude": 11.9463059, "road_node": 4097375544, "snap_distance_m": 55.1 }, "geometry": { "type": "Point", "coordinates": [ 108.4262529, 11.9463059 ] } },
{ "type": "Feature", "properties": { "node_id": "DL05", "osm_id": "node/1152350875", "name_vi": "Bảo tàng Lâm Đồng", "name_en": "Lam Dong Museum", "category": "museum", "opening_hours": "Mo-Su 07:15-11:30, 13:30-17:00", "longitude": 108.4599038, "latitude": 11.9405756, "road_node": 1152347950, "snap_distance_m": 76.9 }, "geometry": { "type": "Point", "coordinates": [ 108.4599038, 11.9405756 ] } },
{ "type": "Feature", "properties": { "node_id": "DL06", "osm_id": "node/1160978742", "name_vi": "Thung Lũng Tình Yêu", "name_en": "Valley of Love", "category": "tourist_area", "opening_hours": null, "longitude": 108.4499229, "latitude": 11.9781853, "road_node": 11085620945, "snap_distance_m": 69.2 }, "geometry": { "type": "Point", "coordinates": [ 108.4499229, 11.9781853 ] } },
{ "type": "Feature", "properties": { "node_id": "DL07", "osm_id": "node/1164597191", "name_vi": "Thác Datanla", "name_en": "Datanla Fall", "category": "waterfall", "opening_hours": null, "longitude": 108.4489764, "latitude": 11.9012375, "road_node": 11513242011, "snap_distance_m": 427.1 }, "geometry": { "type": "Point", "coordinates": [ 108.4489764, 11.9012375 ] } },
{ "type": "Feature", "properties": { "node_id": "DL08", "osm_id": "way/1486332120", "name_vi": "Devil Mountain Tourist Area", "name_en": null, "category": "tourist_area", "opening_hours": "Mo-Su 08:00-17:00", "longitude": 108.3498182, "latitude": 12.0020825, "road_node": 7238226673, "snap_distance_m": 935.5 }, "geometry": { "type": "Point", "coordinates": [ 108.3498182, 12.0020825 ] } },
{ "type": "Feature", "properties": { "node_id": "DL09", "osm_id": "way/1509937793", "name_vi": "Làng Cu Lần", "name_en": null, "category": "tourist_area", "opening_hours": null, "longitude": 108.3618731, "latitude": 12.0265442, "road_node": 4521722923, "snap_distance_m": 766.4 }, "geometry": { "type": "Point", "coordinates": [ 108.3618731, 12.0265442 ] } },
{ "type": "Feature", "properties": { "node_id": "DL10", "osm_id": "way/1515399859", "name_vi": "Vườn dâu Công nghệ cao Bình Yên", "name_en": "Binh Yen High-Tech Strawberry Garden", "category": "garden", "opening_hours": null, "longitude": 108.4271423, "latitude": 11.9487973, "road_node": 1152312689, "snap_distance_m": 75.1 }, "geometry": { "type": "Point", "coordinates": [ 108.4271423, 11.9487973 ] } },
{ "type": "Feature", "properties": { "node_id": "DL11", "osm_id": "node/4096525696", "name_vi": "Thác Prenn", "name_en": "Prenn Falls", "category": "waterfall", "opening_hours": null, "longitude": 108.4701041, "latitude": 11.8765192, "road_node": 4679052634, "snap_distance_m": 58.9 }, "geometry": { "type": "Point", "coordinates": [ 108.4701041, 11.8765192 ] } },
{ "type": "Feature", "properties": { "node_id": "DL12", "osm_id": "node/4368051989", "name_vi": "Đường hầm điêu khắc", "name_en": "Clay Tunnels - Dalat Star", "category": "attraction", "opening_hours": null, "longitude": 108.4112222, "latitude": 11.8828709, "road_node": 4601899889, "snap_distance_m": 122.5 }, "geometry": { "type": "Point", "coordinates": [ 108.4112222, 11.8828709 ] } },
{ "type": "Feature", "properties": { "node_id": "DL13", "osm_id": "node/5274759821", "name_vi": "Dinh III Bảo Đại", "name_en": null, "category": "heritage", "opening_hours": "Mo-Su 07:00-11:00, 13:00-17:00", "longitude": 108.4296735, "latitude": 11.9300468, "road_node": 7241701648, "snap_distance_m": 142.2 }, "geometry": { "type": "Point", "coordinates": [ 108.4296735, 11.9300468 ] } },
{ "type": "Feature", "properties": { "node_id": "DL14", "osm_id": "node/5666385423", "name_vi": "Vườn Hoa Cẩm Tú Cầu", "name_en": null, "category": "garden", "opening_hours": null, "longitude": 108.5130702, "latitude": 11.9461533, "road_node": 7290129239, "snap_distance_m": 154.3 }, "geometry": { "type": "Point", "coordinates": [ 108.5130702, 11.9461533 ] } },
{ "type": "Feature", "properties": { "node_id": "DL15", "osm_id": "node/7004037185", "name_vi": "Nhà thờ Cam Ly", "name_en": null, "category": "religious", "opening_hours": null, "longitude": 108.4224568, "latitude": 11.9441573, "road_node": 6544514663, "snap_distance_m": 137.5 }, "geometry": { "type": "Point", "coordinates": [ 108.4224568, 11.9441573 ] } },
{ "type": "Feature", "properties": { "node_id": "DL16", "osm_id": "node/11598941137", "name_vi": "Hồ Tuyền Lâm", "name_en": "Tuyen Lam Lake", "category": "lake", "opening_hours": null, "longitude": 108.4372983, "latitude": 11.8995542, "road_node": 6372459235, "snap_distance_m": 77.8 }, "geometry": { "type": "Point", "coordinates": [ 108.4372983, 11.8995542 ] } },
{ "type": "Feature", "properties": { "node_id": "DL17", "osm_id": "node/13059586149", "name_vi": "Khu du lịch sinh thái Cao Nguyên Hoa Đà Lạt", "name_en": "Dalat Flower Plateau Eco-Tourism Area", "category": "theme_park", "opening_hours": null, "longitude": 108.3715298, "latitude": 11.926564, "road_node": 7243852090, "snap_distance_m": 899.4 }, "geometry": { "type": "Point", "coordinates": [ 108.3715298, 11.926564 ] } },
{ "type": "Feature", "properties": { "node_id": "DL18", "osm_id": "node/13072770501", "name_vi": "Làng Cổ Tích", "name_en": null, "category": "attraction", "opening_hours": "Mo-Su 07:30-17:00", "longitude": 108.4029778, "latitude": 11.9485347, "road_node": 11085566068, "snap_distance_m": 222.0 }, "geometry": { "type": "Point", "coordinates": [ 108.4029778, 11.9485347 ] } },
{ "type": "Feature", "properties": { "node_id": "DL19", "osm_id": "node/13114679227", "name_vi": "Làng Đồng trụ LangBiang", "name_en": null, "category": "cultural", "opening_hours": null, "longitude": 108.4347078, "latitude": 12.0195502, "road_node": 10727081217, "snap_distance_m": 177.5 }, "geometry": { "type": "Point", "coordinates": [ 108.4347078, 12.0195502 ] } },
{ "type": "Feature", "properties": { "node_id": "DL20", "osm_id": "node/13805820449", "name_vi": "Thác Ankroet", "name_en": null, "category": "waterfall", "opening_hours": null, "longitude": 108.3672292, "latitude": 11.9908607, "road_node": 794329780, "snap_distance_m": 902.5 }, "geometry": { "type": "Point", "coordinates": [ 108.3672292, 11.9908607 ] } },
{ "type": "Feature", "properties": { "node_id": "DL21", "osm_id": "node/1152317883", "name_vi": "Chợ Đà Lạt", "name_en": "Da Lat Market", "category": "market", "opening_hours": null, "longitude": 108.43721, "latitude": 11.94352, "road_node": 13266867208, "snap_distance_m": 76.8 }, "geometry": { "type": "Point", "coordinates": [ 108.43721, 11.94352 ] } },
{ "type": "Feature", "properties": { "node_id": "DL22", "osm_id": null, "name_vi": "Hồ Xuân Hương", "name_en": "Xuan Huong Lake", "category": "lake", "opening_hours": null, "longitude": 108.4468389, "latitude": 11.94185, "road_node": 357447073, "snap_distance_m": 174.7 }, "geometry": { "type": "Point", "coordinates": [ 108.4468389, 11.94185 ] } },
{ "type": "Feature", "properties": { "node_id": "DL23", "osm_id": "node/4426128791", "name_vi": "Quảng trường Lâm Viên", "name_en": "Lam Vien Square", "category": "landmark", "opening_hours": null, "longitude": 108.44501, "latitude": 11.93884, "road_node": 7241703661, "snap_distance_m": 131.2 }, "geometry": { "type": "Point", "coordinates": [ 108.44501, 11.93884 ] } },
{ "type": "Feature", "properties": { "node_id": "DL24", "osm_id": "node/1160978725", "name_vi": "Thiền viện Trúc Lâm Đà Lạt", "name_en": "Truc Lam Monastery of Da Lat", "category": "religious", "opening_hours": null, "longitude": 108.43562, "latitude": 11.90363, "road_node": 669359789, "snap_distance_m": 361.5 }, "geometry": { "type": "Point", "coordinates": [ 108.43562, 11.90363 ] } },
{ "type": "Feature", "properties": { "node_id": "DL25", "osm_id": "node/1152317718", "name_vi": "Bến xe Liên tỉnh Đà Lạt", "name_en": "Da Lat Interprovincial Bus Station", "category": "transport", "opening_hours": null, "longitude": 108.44551, "latitude": 11.92688, "road_node": 8659102113, "snap_distance_m": 140.5 }, "geometry": { "type": "Point", "coordinates": [ 108.44551, 11.92688 ] } }
]
}
